ORBCOMM FM05            
1 25117U 97084F   24172.73603965  .00001609  00000+0  51880-3 0  9999
2 25117  45.0169 299.7210 0004188 217.4249 142.6310 14.42957971388345
ORBCOMM FM06            
1 25118U 97084G   24172.79221372  .00001868  00000+0  59467-3 0  9990
2 25118  45.0156 299.5991 0003574 226.7892 287.5705 14.43027927389260
ORBCOMM FM07            
1 25119U 97084H   24172.75627628  .00001651  00000+0  53152-3 0  9996
2 25119  45.0150 300.3329 0004805 208.9757 151.0827 14.42931480389257
ORBCOMM FM03            
1 25158U 98007B   24172.79692573  .00001047  00000+0  43068-3 0  9994
2 25158 107.9706 114.2618 0046090 161.2293 199.0557 14.32333162372252
ORBCOMM FM17            
1 25413U 98046A   24173.17538510  .00000918  00000+0  38116-3 0  9998
2 25413  44.9934 159.1602 0002810 252.1469 107.9070 14.33299521351512
ORBCOMM FM18            
1 25414U 98046B   24172.94968800  .00001515  00000+0  56343-3 0  9998
2 25414  44.9943  86.4268 0004119 276.8393  83.1986 14.36113574352446
ORBCOMM FM19            
1 25415U 98046C   24172.92902539  .00001510  00000+0  56360-3 0  9998
2 25415  44.9952  87.9917 0002850 274.4970 129.2858 14.35948334352235
